0 CZ-4B DEB
1 35405U 02024K   13281.75832299  .00000823  00000-0  44003-3 0  4368
2 35405 098.7545 253.1363 0128711 318.5751 161.3197 14.11771827583496
0 CZ-4B DEB
1 35405U 02024K   13283.81276862  .00000698  00000-0  37658-3 0  4374
2 35405 098.7546 255.1423 0128615 312.7086 162.8330 14.11779141583780
0 CZ-4B DEB
1 35405U 02024K   13286.72048731  .00000790  00000-0  42346-3 0  4383
2 35405 098.7551 257.9813 0128501 304.4028 181.0997 14.11782797584208
0 CZ-4B DEB
1 35405U 02024K   13289.18698183  .00000981  00000-0  52047-3 0  4390
2 35405 098.7557 260.3894 0128408 297.3385 116.9395 14.11788827584549
0 CZ-4B DEB
1 35405U 02024K   13291.40373653  .00000911  00000-0  48488-3 0  4409
2 35405 098.7563 262.5539 0128354 290.9836 223.5306 14.11793248584861
0 CZ-4B DEB
1 35405U 02024K   13293.80590461  .00000911  00000-0  48477-3 0  4412
2 35405 098.7567 264.8997 0128281 284.1116 192.5090 14.11799107585195
